NORAD_CAT_ID,OBJECT_NAME,OBJECT_TYPE,EPOCH,MEAN_MOTION,ECCENTRICITY,INCLINATION,RA_OF_ASC_NODE,ARG_OF_PERICENTER,MEAN_ANOMALY,BSTAR,MEAN_MOTION_DOT,MEAN_MOTION_DDOT,TLE_LINE0,TLE_LINE1,TLE_LINE2,SEMIMAJOR_AXIS,PERIOD,APOGEE,PERIGEE,DECAYED
53013.0,STARLINK-4177,PAYLOAD,2024-07-29 09:58:54,15.08835178,0.0001351,53.2152,204.9844,92.2523,267.8624,-4.1014e-07,-2.94e-06,0.0,0 STARLINK-4177,1 53013U 22076AD  24211.41591291 -.00000294  00000-0 -41014-6 0  9994,2 53013  53.2152 204.9844 0001351  92.2523 267.8624 15.08835178114643,6917.895,95.438,540.695,538.826,0.0
53013.0,STARLINK-4177,PAYLOAD,2024-07-29 16:20:27,15.08836703,0.0001343,53.2155,203.7952,92.5682,267.5464,3.0192e-05,1.93e-06,0.0,0 STARLINK-4177,1 53013U 22076AD  24211.68087177  .00000193  00000-0  30192-4 0  9995,2 53013  53.2155 203.7952 0001343  92.5682 267.5464 15.08836703114210,6917.89,95.438,540.685,538.826,0.0
53013.0,STARLINK-4177,PAYLOAD,2024-07-30 06:38:55,15.08836032,0.0001341,53.2153,201.1201,96.7685,263.346,7.2618e-05,8.68e-06,0.0,0 STARLINK-4177,1 53013U 22076AD  24212.27703337  .00000868  00000-0  72618-4 0  9992,2 53013  53.2153 201.1201 0001341  96.7685 263.3460 15.08836032114309,6917.893,95.438,540.685,538.83,0.0
53013.0,STARLINK-4177,PAYLOAD,2024-07-30 16:11:14,15.08838032,0.0001354,53.2156,199.3358,95.4713,264.6434,7.8706e-05,9.65e-06,0.0,0 STARLINK-4177,1 53013U 22076AD  24212.67447299  .00000965  00000-0  78706-4 0  9990,2 53013  53.2156 199.3358 0001354  95.4713 264.6434 15.08838032114830,6917.886,95.438,540.688,538.815,0.0
53013.0,STARLINK-4177,PAYLOAD,2024-07-31 06:29:42,15.08839884,0.0001389,53.216,196.6599,88.8229,271.2922,7.1324e-05,8.47e-06,0.0,0 STARLINK-4177,1 53013U 22076AD  24213.27063419  .00000847  00000-0  71324-4 0  9993,2 53013  53.2160 196.6599 0001389  88.8229 271.2922 15.08839884114458,6917.881,95.438,540.707,538.785,0.0
53013.0,STARLINK-4177,PAYLOAD,2024-07-31 22:23:34,15.08838056,0.0001447,53.2158,193.6862,80.3661,279.7495,5.5058e-05,5.88e-06,0.0,0 STARLINK-4177,1 53013U 22076AD  24213.93303654  .00000588  00000-0  55058-4 0  9992,2 53013  53.2158 193.6862 0001447  80.3661 279.7495 15.08838056114556,6917.886,95.438,540.752,538.75,0.0
53013.0,STARLINK-4177,PAYLOAD,2024-08-01 04:45:06,15.08839844,0.0001442,53.2157,192.4964,80.5305,279.585,2.2582e-05,7.1e-07,0.0,0 STARLINK-4177,1 53013U 22076AD  24214.19799695  .00000071  00000-0  22582-4 0  9998,2 53013  53.2157 192.4964 0001442  80.5305 279.5850 15.08839844115063,6917.881,95.438,540.743,538.748,0.0
53013.0,STARLINK-4177,PAYLOAD,2024-08-01 06:20:29,15.08842239,0.0001468,53.2161,192.1991,80.4208,279.695,4.1024e-05,3.65e-06,0.0,0 STARLINK-4177,1 53013U 22076AD  24214.26423492  .00000365  00000-0  41024-4 0  9993,2 53013  53.2161 192.1991 0001468  80.4208 279.6950 15.08842239114607,6917.874,95.437,540.754,538.723,0.0
53013.0,STARLINK-4177,PAYLOAD,2024-08-01 15:52:48,15.08841695,0.0001526,53.2167,190.4152,84.456,275.6606,2.5889e-05,1.24e-06,0.0,0 STARLINK-4177,1 53013U 22076AD  24214.66167564  .00000124  00000-0  25889-4 0  9996,2 53013  53.2167 190.4152 0001526  84.4560 275.6606 15.08841695114668,6917.875,95.437,540.796,538.685,0.0
53013.0,STARLINK-4177,PAYLOAD,2024-08-02 07:46:40,15.0884221,0.0001439,53.216,187.4392,91.597,268.5187,3.191e-05,2.2e-06,0.0,0 STARLINK-4177,1 53013U 22076AD  24215.32407526  .00000220  00000-0  31910-4 0  9994,2 53013  53.2160 187.4392 0001439  91.5970 268.5187 15.08842210115233,6917.874,95.437,540.734,538.743,0.0
53013.0,STARLINK-4177,PAYLOAD,2024-08-02 22:05:08,15.08835052,0.0001367,53.215,184.764,90.0934,270.0215,3.1663e-05,2.16e-06,0.0,0 STARLINK-4177,1 53013U 22076AD  24215.92024050  .00000216  00000-0  31663-4 0  9997,2 53013  53.2150 184.7640 0001367  90.0934 270.0215 15.08835052114855,6917.896,95.438,540.706,538.815,0.0
53013.0,STARLINK-4177,PAYLOAD,2024-08-03 07:37:27,15.08842642,0.0001428,53.2156,182.9784,93.0565,267.059,3.4271e-05,2.58e-06,0.0,0 STARLINK-4177,1 53013U 22076AD  24216.31767622  .00000258  00000-0  34271-4 0  9994,2 53013  53.2156 182.9784 0001428  93.0565 267.0590 15.08842642114913,6917.872,95.437,540.725,538.749,0.0
53013.0,STARLINK-4177,PAYLOAD,2024-08-04 04:17:27,15.08842943,0.0001499,53.2165,179.1123,99.7077,260.4084,0.00013809,1.911e-05,0.0,0 STARLINK-4177,1 53013U 22076AD  24217.17879220  .00001911  00000-0  13809-3 0  9997,2 53013  53.2165 179.1123 0001499  99.7077 260.4084 15.08842943115513,6917.871,95.437,540.773,538.699,0.0
53013.0,STARLINK-4177,PAYLOAD,2024-08-04 21:46:42,15.08834,0.0001561,53.2164,175.8412,98.3749,261.742,0.00016737,2.376e-05,0.0,0 STARLINK-4177,1 53013U 22076AD  24217.90743695  .00002376  00000-0  16737-3 0  9993,2 53013  53.2164 175.8412 0001561  98.3749 261.7420 15.08834000115622,6917.899,95.438,540.844,538.684,0.0
53013.0,STARLINK-4177,PAYLOAD,2024-08-05 04:08:14,15.08846964,0.0001397,53.2165,174.6577,85.4166,274.6986,0.00014313,1.991e-05,0.0,0 STARLINK-4177,1 53013U 22076AD  24218.17238886  .00001991  00000-0  14313-3 0  9994,2 53013  53.2165 174.6577 0001397  85.4166 274.6986 15.08846964115665,6917.859,95.437,540.691,538.758,0.0
53013.0,STARLINK-4177,PAYLOAD,2024-08-05 13:40:35,15.08825249,0.0002072,53.2169,172.8673,91.3981,268.7249,-0.00010664,-1.984e-05,0.0,0 STARLINK-4177,1 53013U 22076AD  24218.56985158 -.00001984  00000-0 -10664-3 0  9997,2 53013  53.2169 172.8673 0002072  91.3981 268.7249 15.08825249115724,6917.925,95.438,541.224,538.357,0.0
53013.0,STARLINK-4177,PAYLOAD,2024-08-06 13:31:22,15.08831984,0.0001459,53.2174,168.412,110.0443,250.0706,-2.7576e-05,-7.27e-06,0.0,0 STARLINK-4177,1 53013U 22076AD  24219.56345103 -.00000727  00000-0 -27576-4 0  9993,2 53013  53.2174 168.4120 0001459 110.0443 250.0706 15.08831984115408,6917.905,95.438,540.779,538.761,0.0
53013.0,STARLINK-4177,PAYLOAD,2024-08-07 02:14:26,15.0884932,0.0001276,53.2169,166.0323,106.2518,253.8615,6.7033e-05,7.79e-06,0.0,0 STARLINK-4177,1 53013U 22076AD  24220.09335840  .00000779  00000-0  67033-4 0  9997,2 53013  53.2169 166.0323 0001276 106.2518 253.8615 15.08849320115951,6917.852,95.437,540.6,538.834,0.0
53013.0,STARLINK-4177,PAYLOAD,2024-08-08 05:15:59,15.08852522,0.0001213,53.2165,160.9746,110.359,249.7532,0.0003205,4.818e-05,0.0,0 STARLINK-4177,1 53013U 22076AD  24221.21943699  .00004818  00000-0  32050-3 0  9997,2 53013  53.2165 160.9746 0001213 110.3590 249.7532 15.08852522115653,6917.842,95.437,540.546,538.868,0.0
53013.0,STARLINK-4177,PAYLOAD,2024-08-09 05:06:46,15.08857086,0.000167,53.2168,156.5062,120.8977,239.218,0.00010119,1.323e-05,0.0,0 STARLINK-4177,1 53013U 22076AD  24222.21303295  .00001323  00000-0  10119-3 0  9990,2 53013  53.2168 156.5062 0001670 120.8977 239.2180 15.08857086116272,6917.828,95.436,540.848,538.538,0.0
53013.0,STARLINK-4177,PAYLOAD,2024-08-09 13:03:42,15.08836096,0.0001691,53.2169,155.0257,103.1987,256.9194,-7.4072e-05,-1.467e-05,0.0,0 STARLINK-4177,1 53013U 22076AD  24222.54424595 -.00001467  00000-0 -74072-4 0  9993,2 53013  53.2169 155.0257 0001691 103.1987 256.9194 15.08836096116326,6917.892,95.438,540.927,538.588,0.0
53013.0,STARLINK-4177,PAYLOAD,2024-08-10 01:46:47,15.08844695,0.0001348,53.2159,152.6476,92.1592,267.9555,9.2842e-06,-1.4e-06,0.0,0 STARLINK-4177,1 53013U 22076AD  24223.07416147 -.00000140  00000-0  92842-5 0  9998,2 53013  53.2159 152.6476 0001348  92.1592 267.9555 15.08844695116405,6917.866,95.437,540.664,538.799,0.0
53013.0,STARLINK-4177,PAYLOAD,2024-08-10 19:16:02,15.08844876,0.0001471,53.2154,149.3778,79.1065,281.0093,9.3846e-05,1.206e-05,0.0,0 STARLINK-4177,1 53013U 22076AD  24223.80280480  .00001206  00000-0  93846-4 0  9995,2 53013  53.2154 149.3778 0001471  79.1065 281.0093 15.08844876116040,6917.865,95.437,540.748,538.713,0.0
53013.0,STARLINK-4177,PAYLOAD,2024-08-11 04:48:20,15.08860371,0.0001457,53.2159,147.5958,96.1464,263.9694,0.00060683,9.388e-05,0.0,0 STARLINK-4177,1 53013U 22076AD  24224.20023877  .00009388  00000-0  60683-3 0  9996,2 53013  53.2159 147.5958 0001457  96.1464 263.9694 15.08860371116573,6917.818,95.436,540.691,538.675,0.0
53013.0,STARLINK-4177,PAYLOAD,2024-08-11 19:06:49,15.08842052,0.0001716,53.2154,144.9189,73.3461,286.7719,9.7938e-05,1.271e-05,0.0,0 STARLINK-4177,1 53013U 22076AD  24224.79640523  .00001271  00000-0  97938-4 0  9990,2 53013  53.2154 144.9189 0001716  73.3461 286.7719 15.08842052116664,6917.874,95.437,540.926,538.552,0.0
53013.0,STARLINK-4177,PAYLOAD,2024-08-11 22:17:35,15.08849114,0.000196,53.2147,144.3247,87.275,272.8466,0.00026048,3.861e-05,0.0,0 STARLINK-4177,1 53013U 22076AD  24224.92888296  .00003861  00000-0  26048-3 0  9996,2 53013  53.2147 144.3247 0001960  87.2750 272.8466 15.08849114116213,6917.853,95.437,541.073,538.362,0.0
53013.0,STARLINK-4177,PAYLOAD,2024-08-12 04:39:07,15.08870485,0.0001507,53.2157,143.1303,73.2113,286.9044,0.0013338,0.00021021,0.0,0 STARLINK-4177,1 53013U 22076AD  24225.19383767  .00021021  00000-0  13338-2 0  9994,2 53013  53.2157 143.1303 0001507  73.2113 286.9044 15.08870485116728,6917.787,95.436,540.695,538.61,0.0
53013.0,STARLINK-4177,PAYLOAD,2024-08-12 18:57:35,15.08874485,0.0001642,53.2158,140.4551,78.383,281.7347,0.0018904,0.00029955,0.0,0 STARLINK-4177,1 53013U 22076AD  24225.78999618  .00029955  00000-0  18904-2 0  9995,2 53013  53.2158 140.4551 0001642  78.3830 281.7347 15.08874485116819,6917.775,95.435,540.776,538.504,0.0
53013.0,STARLINK-4177,PAYLOAD,2024-08-12 22:08:21,15.08909389,0.0001746,53.2152,139.8612,115.6816,244.4357,0.0043212,0.00069293,0.0,0 STARLINK-4177,1 53013U 22076AD  24225.92247050  .00069293  00000-0  43212-2 0  9996,2 53013  53.2152 139.8612 0001746 115.6816 244.4357 15.08909389116366,6917.668,95.433,540.741,538.325,0.0
53013.0,STARLINK-4177,PAYLOAD,2024-08-13 04:29:54,15.08807696,0.0001893,53.2148,138.6713,94.7416,265.3792,-0.0014315,-0.00022979,0.0,0 STARLINK-4177,1 53013U 22076AD  24226.18744011 -.00022979  00000-0 -14315-2 0  9998,2 53013  53.2148 138.6713 0001893  94.7416 265.3792 15.08807696116875,6917.979,95.44,541.154,538.535,0.0
